OBJECT_NAME,OBJECT_ID,EPOCH,MEAN_MOTION,ECCENTRICITY,INCLINATION,RA_OF_ASC_NODE,ARG_OF_PERICENTER,MEAN_ANOMALY,EPHEMERIS_TYPE,CLASSIFICATION_TYPE,NORAD_CAT_ID,ELEMENT_SET_NO,REV_AT_EPOCH,BSTAR,MEAN_MOTION_DOT,MEAN_MOTION_DDOT
DMSP 5D-3 F16 (USA 172),2003-048A,2026-07-11T12:24:18.220320,14.14484870,.0008193,98.9887,216.5054,80.2857,77.1570,0,U,28054,999,17292,.67049E-5,-.32E-6,0
METEOSAT-9 (MSG-2),2005-049B,2026-07-11T05:13:17.848416,1.00270197,.0002029,9.4132,53.9259,357.4609,1.7359,0,U,28912,999,723,0,.122E-5,0
DMSP 5D-3 F17 (USA 191),2006-050A,2026-07-11T11:51:51.890112,14.14996041,.0009948,98.7385,198.5676,353.6841,6.4206,0,U,29522,999,1586,.2427E-4,.4E-7,0
FENGYUN 3A,2008-026A,2026-07-11T07:02:49.261344,14.19575960,.0009786,98.6887,132.6764,62.0344,298.1821,0,U,32958,999,93882,.2975E-4,.19E-6,0
GOES 14,2009-033A,2026-07-11T13:09:01.451808,1.00099941,.0001884,1.7498,82.7408,39.7705,131.5347,0,U,35491,999,683,0,-.351E-5,0
DMSP 5D-3 F18 (USA 210),2009-057A,2026-07-11T11:12:52.312032,14.14910097,.0011004,98.9053,173.1854,175.9454,184.1810,0,U,35951,999,86302,.11606E-3,.18E-5,0
EWS-G2 (GOES 15),2010-008A,2026-07-11T12:08:57.393312,1.00268134,.0005213,1.3416,82.5091,53.6091,38.8909,0,U,36411,999,5988,0,.26E-6,0
COMS 1,2010-032A,2026-07-11T08:19:04.480896,0.99168841,.0011265,4.8643,75.0643,14.7082,301.5980,0,U,36744,999,5132,0,-.239E-5,0
FENGYUN 3B,2010-059A,2026-07-11T13:44:33.846144,14.14847605,.0023063,98.9613,238.6890,116.4133,7.7566,0,U,37214,999,81087,.25395E-3,.446E-5,0
SUOMI NPP,2011-061A,2026-07-11T12:24:48.150144,14.19522179,.0000601,98.7956,133.2277,238.5697,121.5420,0,U,37849,999,76189,.32029E-4,.23E-6,0
METEOSAT-10 (MSG-3),2012-035B,2026-07-11T08:41:38.595264,1.00270079,.0001082,4.7262,60.8974,18.5599,340.2859,0,U,38552,999,5109,0,-.5E-7,0
METOP-B,2012-049A,2026-07-11T11:23:14.692704,14.21445721,.0001046,98.6492,243.4876,278.8743,81.2316,0,U,38771,999,71671,.40606E-4,.45E-6,0
INSAT-3D,2013-038B,2026-07-11T12:27:48.038400,1.00270210,.0000503,1.9860,82.2347,82.8145,80.8501,0,U,39216,999,4732,0,-.335E-5,0
FENGYUN 3C,2013-052A,2026-07-11T11:55:23.107008,14.15760271,.0013824,98.4995,165.2573,317.2737,42.7362,0,U,39260,999,66200,.29628E-4,.17E-6,0
METEOR-M 2,2014-037A,2026-07-11T12:00:42.513120,14.21468163,.0005396,98.5124,167.3791,339.1607,20.9351,0,U,40069,999,62277,.1698E-4,-.5E-7,0
HIMAWARI-8,2014-060A,2026-07-11T10:50:38.653728,1.00272747,.0001038,0.0243,301.5966,226.1303,64.9530,0,U,40267,999,4300,0,-.269E-5,0
FENGYUN 2G,2014-090A,2026-07-10T19:42:21.488256,1.00262179,.000418,5.6947,72.5304,151.4306,99.7078,0,U,40367,999,4223,0,-.296E-5,0
METEOSAT-11 (MSG-4),2015-034A,2026-07-11T08:41:02.594112,1.00270663,.0002239,3.2601,70.9590,352.6406,5.1820,0,U,40732,999,745,0,.65E-6,0
ELEKTRO-L 2,2015-074A,2026-07-11T10:04:03.448704,1.00272476,.0000889,6.7510,70.2237,218.2194,137.3884,0,U,41105,999,3874,0,-.118E-5,0
SENTINEL-3A,2016-011A,2026-07-11T11:33:21.589632,14.26739112,.0001389,98.6239,259.5149,91.2410,268.8929,0,U,41335,999,54152,.34705E-4,.4E-6,0
INSAT-3DR,2016-054A,2026-07-11T12:14:38.597280,1.00271967,.0010636,0.0601,88.7662,181.6738,276.6438,0,U,41752,999,3606,0,-.71E-6,0
HIMAWARI-9,2016-064A,2026-07-11T11:35:41.115264,1.00269747,.0002086,0.0274,53.1598,125.2567,65.6557,0,U,41836,999,3545,0,0,0
GOES 16,2016-071A,2026-07-11T11:21:01.985760,1.00270890,.0000527,0.3938,85.5072,97.2167,172.2257,0,U,41866,999,3534,0,-.85E-6,0
FENGYUN 4A,2016-077A,2026-07-11T14:01:25.845024,1.00270201,.0008446,2.3807,80.0141,159.1057,24.5047,0,U,41882,999,3517,0,-.354E-5,0
CYGFM05,2016-078A,2026-07-11T03:45:12.362112,15.57723058,.0006756,34.9563,101.7417,357.5838,2.4853,0,U,41884,999,53249,.21963E-3,.16838E-3,0
CYGFM04,2016-078B,2026-07-11T01:12:11.263104,15.62895697,.0004748,34.9325,68.9003,37.6880,322.4178,0,U,41885,999,53273,.23003E-3,.21532E-3,0
CYGFM02,2016-078C,2026-07-11T00:04:50.711808,15.66134024,.0005499,34.9407,63.0241,41.3782,318.7361,0,U,41886,999,53290,.24228E-3,.25827E-3,0
CYGFM01,2016-078D,2026-07-11T03:13:30.312768,15.58435350,.0006722,34.9393,102.7463,350.7415,9.3185,0,U,41887,999,53244,.22476E-3,.17706E-3,0
CYGFM08,2016-078E,2026-07-11T01:14:12.297408,15.61289070,.0006906,34.9430,82.2269,25.2754,334.8308,0,U,41888,999,53270,.22518E-3,.198E-3,0
CYGFM07,2016-078G,2026-07-11T00:13:08.876064,15.61394635,.0005183,34.9449,70.8303,38.2786,321.8307,0,U,41890,999,53272,.21805E-3,.19239E-3,0
CYGFM03,2016-078H,2026-07-11T01:03:40.976064,15.61383213,.0005276,34.9402,72.5270,22.6605,337.4353,0,U,41891,999,53270,.222E-3,.19582E-3,0
