DMSP 5D-3 F16 (USA 172) 
1 28054U 03048A   26192.51687755 -.00000032  00000+0  67049-5 0  9994
2 28054  98.9887 216.5054 0008193  80.2857  77.1570 14.14484870172923
METEOSAT-9 (MSG-2)      
1 28912U 05049B   26192.21756769  .00000122  00000+0  00000+0 0  9996
2 28912   9.4132  53.9259 0002029 357.4609   1.7359  1.00270197  7237
DMSP 5D-3 F17 (USA 191) 
1 29522U 06050A   26192.49435058  .00000004  00000+0  24270-4 0  9991
2 29522  98.7385 198.5676 0009948 353.6841   6.4206 14.14996041 15861
FENGYUN 3A              
1 32958U 08026A   26192.29362571  .00000019  00000+0  29750-4 0  9994
2 32958  98.6887 132.6764 0009786  62.0344 298.1821 14.19575960938821
GOES 14                 
1 35491U 09033A   26192.54793347 -.00000351  00000+0  00000+0 0  9997
2 35491   1.7498  82.7408 0001884  39.7705 131.5347  1.00099941  6838
DMSP 5D-3 F18 (USA 210) 
1 35951U 09057A   26192.46727213  .00000180  00000+0  11606-3 0  9991
2 35951  98.9053 173.1854 0011004 175.9454 184.1810 14.14910097863027
EWS-G2 (GOES 15)        
1 36411U 10008A   26192.50621983  .00000026  00000+0  00000+0 0  9994
2 36411   1.3416  82.5091 0005213  53.6091  38.8909  1.00268134 59884
COMS 1                  
1 36744U 10032A   26192.34657964 -.00000239  00000+0  00000+0 0  9997
2 36744   4.8643  75.0643 0011265  14.7082 301.5980  0.99168841 51326
FENGYUN 3B              
1 37214U 10059A   26192.57261396  .00000446  00000+0  25395-3 0  9991
2 37214  98.9613 238.6890 0023063 116.4133   7.7566 14.14847605810879
SUOMI NPP               
1 37849U 11061A   26192.51722396  .00000023  00000+0  32029-4 0  9999
2 37849  98.7956 133.2277 0000601 238.5697 121.5420 14.19522179761896
METEOSAT-10 (MSG-3)     
1 38552U 12035B   26192.36225226 -.00000005  00000+0  00000+0 0  9996
2 38552   4.7262  60.8974 0001082  18.5599 340.2859  1.00270079 51090
METOP-B                 
1 38771U 12049A   26192.47447561  .00000045  00000+0  40606-4 0  9998
2 38771  98.6492 243.4876 0001046 278.8743  81.2316 14.21445721716714
INSAT-3D                
1 39216U 13038B   26192.51930600 -.00000335  00000+0  00000+0 0  9990
2 39216   1.9860  82.2347 0000503  82.8145  80.8501  1.00270210 47320
FENGYUN 3C              
1 39260U 13052A   26192.49679522  .00000017  00000+0  29628-4 0  9993
2 39260  98.4995 165.2573 0013824 317.2737  42.7362 14.15760271662005
METEOR-M 2              
1 40069U 14037A   26192.50049205 -.00000005  00000+0  16980-4 0  9992
2 40069  98.5124 167.3791 0005396 339.1607  20.9351 14.21468163622776
HIMAWARI-8              
1 40267U 14060A   26192.45183627 -.00000269  00000+0  00000+0 0  9992
2 40267   0.0243 301.5966 0001038 226.1303  64.9530  1.00272747 43003
FENGYUN 2G              
1 40367U 14090A   26191.82108204 -.00000296  00000+0  00000+0 0  9994
2 40367   5.6947  72.5304 0004180 151.4306  99.7078  1.00262179 42236
METEOSAT-11 (MSG-4)     
1 40732U 15034A   26192.36183558  .00000065  00000+0  00000+0 0  9997
2 40732   3.2601  70.9590 0002239 352.6406   5.1820  1.00270663  7459
ELEKTRO-L 2             
1 41105U 15074A   26192.41948436 -.00000118  00000+0  00000+0 0  9996
2 41105   6.7510  70.2237 0000889 218.2194 137.3884  1.00272476 38740
SENTINEL-3A             
1 41335U 16011A   26192.48149988  .00000040  00000+0  34705-4 0  9992
2 41335  98.6239 259.5149 0001389  91.2410 268.8929 14.26739112541525
INSAT-3DR               
1 41752U 16054A   26192.51016895 -.00000071  00000+0  00000+0 0  9997
2 41752   0.0601  88.7662 0010636 181.6738 276.6438  1.00271967 36069
HIMAWARI-9              
1 41836U 16064A   26192.48311476  .00000000  00000+0  00000+0 0  9991
2 41836   0.0274  53.1598 0002086 125.2567  65.6557  1.00269747 35459
GOES 16                 
1 41866U 16071A   26192.47293965 -.00000085  00000+0  00000+0 0  9997
2 41866   0.3938  85.5072 0000527  97.2167 172.2257  1.00270890 35341
FENGYUN 4A              
1 41882U 16077A   26192.58432691 -.00000354  00000+0  00000+0 0  9993
2 41882   2.3807  80.0141 0008446 159.1057  24.5047  1.00270201 35170
CYGFM05                 
1 41884U 16078A   26192.15639308  .00016838  00000+0  21963-3 0  9991
2 41884  34.9563 101.7417 0006756 357.5838   2.4853 15.57723058532499
CYGFM04                 
1 41885U 16078B   26192.05013036  .00021532  00000+0  23003-3 0  9999
2 41885  34.9325  68.9003 0004748  37.6880 322.4178 15.62895697532730
CYGFM02                 
1 41886U 16078C   26192.00336472  .00025827  00000+0  24228-3 0  9998
2 41886  34.9407  63.0241 0005499  41.3782 318.7361 15.66134024532904
CYGFM01                 
1 41887U 16078D   26192.13437862  .00017706  00000+0  22476-3 0  9998
2 41887  34.9393 102.7463 0006722 350.7415   9.3185 15.58435350532449
CYGFM08                 
1 41888U 16078E   26192.05153122  .00019800  00000+0  22518-3 0  9998
2 41888  34.9430  82.2269 0006906  25.2754 334.8308 15.61289070532704
CYGFM07                 
1 41890U 16078G   26192.00913051  .00019239  00000+0  21805-3 0  9995
2 41890  34.9449  70.8303 0005183  38.2786 321.8307 15.61394635532725
CYGFM03                 
1 41891U 16078H   26192.04422426  .00019582  00000+0  22200-3 0  9992
2 41891  34.9402  72.5270 0005276  22.6605 337.4353 15.61383213532709
